[{"OBJECT_NAME":"STARLINK-5895","OBJECT_ID":"2023-037BC","EPOCH":"2026-03-09T22:23:45.381696","MEAN_MOTION":15.07243555,"ECCENTRICITY":0.00049855,"INCLINATION":69.9972,"RA_OF_ASC_NODE":260.028,"ARG_OF_PERICENTER":264.4993,"MEAN_ANOMALY":95.5602,"EPHEMERIS_TYPE":0,"CLASSIFICATION_TYPE":"U","NORAD_CAT_ID":55964,"ELEMENT_SET_NO":999,"REV_AT_EPOCH":16460,"BSTAR":0.00072849946,"MEAN_MOTION_DOT":0.00010921,"MEAN_MOTION_DDOT":0},{"OBJECT_NAME":"SL-3 DEB","OBJECT_ID":"1983-075D","EPOCH":"2026-03-09T23:36:44.953632","MEAN_MOTION":15.09588045,"ECCENTRICITY":0.00266029,"INCLINATION":97.8881,"RA_OF_ASC_NODE":62.5591,"ARG_OF_PERICENTER":309.2805,"MEAN_ANOMALY":113.3567,"EPHEMERIS_TYPE":0,"CLASSIFICATION_TYPE":"U","NORAD_CAT_ID":14229,"ELEMENT_SET_NO":999,"REV_AT_EPOCH":31646,"BSTAR":0.00023866318,"MEAN_MOTION_DOT":3.795e-5,"MEAN_MOTION_DDOT":0}]
